[{"OBJECT_NAME":"HAWK-B","OBJECT_ID":"2018-099AN","EPOCH":"2026-03-09T17:08:08.176128","MEAN_MOTION":15.21533472,"ECCENTRICITY":0.00313564,"INCLINATION":97.4099,"RA_OF_ASC_NODE":121.8943,"ARG_OF_PERICENTER":293.4422,"MEAN_ANOMALY":66.3518,"EPHEMERIS_TYPE":0,"CLASSIFICATION_TYPE":"U","NORAD_CAT_ID":43794,"ELEMENT_SET_NO":999,"REV_AT_EPOCH":39790,"BSTAR":0.00033189141,"MEAN_MOTION_DOT":7.505e-5,"MEAN_MOTION_DDOT":0},{"OBJECT_NAME":"INTERCOSMOS 25","OBJECT_ID":"1991-086A","EPOCH":"2026-03-09T17:46:01.385184","MEAN_MOTION":12.11998887,"ECCENTRICITY":0.14869778,"INCLINATION":82.6046,"RA_OF_ASC_NODE":309.9782,"ARG_OF_PERICENTER":116.8223,"MEAN_ANOMALY":259.2563,"EPHEMERIS_TYPE":0,"CLASSIFICATION_TYPE":"U","NORAD_CAT_ID":21819,"ELEMENT_SET_NO":999,"REV_AT_EPOCH":49669,"BSTAR":0.00031680054,"MEAN_MOTION_DOT":1.652e-5,"MEAN_MOTION_DDOT":0}]
